NORAD_CAT_ID,OBJECT_NAME,OBJECT_TYPE,EPOCH,MEAN_MOTION,ECCENTRICITY,INCLINATION,RA_OF_ASC_NODE,ARG_OF_PERICENTER,MEAN_ANOMALY,BSTAR,MEAN_MOTION_DOT,MEAN_MOTION_DDOT,TLE_LINE0,TLE_LINE1,TLE_LINE2,SEMIMAJOR_AXIS,PERIOD,APOGEE,PERIGEE,DECAYED
51976.0,STARLINK-3663,PAYLOAD,2022-07-24 14:00:01,15.08838115,0.000216,53.2186,223.2638,42.6992,159.2414,0.00045537,6.966e-05,0.0,0 STARLINK-3663,1 51976U 22025W   22205.58334491  .00006966  00000-0  45537-3 0  9991,2 51976  53.2186 223.2638 0002160  42.6992 159.2414 15.08838115  1302,6917.886,95.438,541.245,538.257,0.0
51976.0,STARLINK-3663,PAYLOAD,2022-07-24 22:00:00,15.088209699999998,0.0001963,53.2185,221.7659,47.8741,165.6705,0.0024645,0.00039132,0.0,0 STARLINK-3663,1 51976U 22025W   22205.91667824  .00039132  00000-0  24645-2 0  9994,2 51976  53.2185 221.7659 0001963  47.8741 165.6705 15.08820970  1300,6917.939,95.439,541.1619999999998,538.446,0.0
51976.0,STARLINK-3663,PAYLOAD,2022-07-25 14:00:01,15.08847002,0.0002159,53.2179,218.775,44.3952,192.335,-0.0003191999999999,-5.366e-05,0.0,0 STARLINK-3663,1 51976U 22025W   22206.58334491 -.00005366  00000-0 -31920-3 0  9998,2 51976  53.2179 218.7750 0002159  44.3952 192.3350 15.08847002  1303,6917.859,95.437,541.2180000000002,538.23,0.0
51976.0,STARLINK-3663,PAYLOAD,2022-07-25 22:00:00,15.08823112,0.0002,53.2178,217.2771,49.9967,198.3423,0.0024755,0.00039312,0.0,0 STARLINK-3663,1 51976U 22025W   22206.91667824  .00039312  00000-0  24755-2 0  9997,2 51976  53.2178 217.2771 0002000  49.9967 198.3423 15.08823112  1304,6917.932,95.439,541.181,538.413,0.0
51976.0,STARLINK-3663,PAYLOAD,2022-07-26 14:00:01,15.08853347,0.0002188,53.2173,214.2861,45.9388,225.5898,-0.00098733,-0.00015973,0.0,0 STARLINK-3663,1 51976U 22025W   22207.58334491 -.00015973  00000-0 -98733-3 0  9999,2 51976  53.2173 214.2861 0002188  45.9388 225.5898 15.08853347  1308,6917.84,95.437,541.2180000000002,538.191,0.0
51976.0,STARLINK-3663,PAYLOAD,2022-07-26 22:00:00,15.08824283,0.0002070999999999,53.2172,212.7881,51.6697,231.4702,0.0025303,0.00040195,0.0,0 STARLINK-3663,1 51976U 22025W   22207.91667824  .00040195  00000-0  25303-2 0  9999,2 51976  53.2172 212.7881 0002071  51.6697 231.4702 15.08824283  1307,6917.928000000001,95.439,541.226,538.361,0.0
51976.0,STARLINK-3663,PAYLOAD,2022-07-27 14:00:01,15.08833801,0.0002171,53.217,209.7971,44.6528,261.6132,-0.0014142999999999,-0.00022723,0.0,0 STARLINK-3663,1 51976U 22025W   22208.58334491 -.00022723  00000-0 -14143-2 0  9993,2 51976  53.2170 209.7971 0002171  44.6528 261.6132 15.08833801  1305,6917.899,95.438,541.266,538.262,0.0
51976.0,STARLINK-3663,PAYLOAD,2022-07-27 16:00:00,15.08838308,0.0002148,53.2172,209.4224,46.3108,352.8486,-0.0022714,-0.00036255,0.0,0 STARLINK-3663,1 51976U 22025W   22208.66667824 -.00036255  00000-0 -22714-2 0  9999,2 51976  53.2172 209.4224 0002148  46.3108 352.8486 15.08838308 22734,6917.886,95.438,541.237,538.265,0.0
51976.0,STARLINK-3663,PAYLOAD,2022-07-27 22:00:00,15.08802587,0.0002073999999999,53.2172,208.2992,50.5774,267.2733,0.0026526999999999,0.0004213999999999,0.0,0 STARLINK-3663,1 51976U 22025W   22208.91667824  .00042140  00000-0  26527-2 0  9991,2 51976  53.2172 208.2992 0002074  50.5774 267.2733 15.08802587  1301,6917.995,95.44,541.295,538.425,0.0
51976.0,STARLINK-3663,PAYLOAD,2022-07-28 08:00:01,15.08820308,0.000231,53.2174,206.4308,47.2054,15.1126,0.00030677,4.595e-05,0.0,0 STARLINK-3663,1 51976U 22025W   22209.33334491  .00004595  00000-0  30677-3 0  9993,2 51976  53.2174 206.4308 0002310  47.2054  15.1126 15.08820308 22839,6917.941,95.439,541.404,538.2080000000002,0.0
51976.0,STARLINK-3663,PAYLOAD,2022-07-28 14:00:01,15.08841741,0.0002276999999999,53.2173,205.308,45.6776,295.3147,-0.0016977,-0.00027208,0.0,0 STARLINK-3663,1 51976U 22025W   22209.58334491 -.00027208  00000-0 -16977-2 0  9994,2 51976  53.2173 205.3080 0002277  45.6776 295.3147 15.08841741  1306,6917.875,95.437,541.315,538.165,0.0
51976.0,STARLINK-3663,PAYLOAD,2022-07-28 22:00:00,15.08810346,0.0002189999999999,53.2176,203.8102,51.494,301.0892,0.0026209,0.00041637,0.0,0 STARLINK-3663,1 51976U 22025W   22209.91667824  .00041637  00000-0  26209-2 0  9999,2 51976  53.2176 203.8102 0002190  51.4940 301.0892 15.08810346  1308,6917.971,95.439,541.351,538.321,0.0
51976.0,STARLINK-3663,PAYLOAD,2022-07-29 14:00:01,15.08849527,0.0002386,53.218,200.8189,47.2386,328.5023,-0.0019167,-0.00030672,0.0,0 STARLINK-3663,1 51976U 22025W   22210.58334491 -.00030672  00000-0 -19167-2 0  9999,2 51976  53.2180 200.8189 0002386  47.2386 328.5023 15.08849527  1302,6917.851,95.437,541.367,538.066,0.0
51976.0,STARLINK-3663,PAYLOAD,2022-07-29 22:00:00,15.08820278,0.0002295999999999,53.2184,199.3212,52.8004,334.5385,0.0023665,0.00037556,0.0,0 STARLINK-3663,1 51976U 22025W   22210.91667824  .00037556  00000-0  23665-2 0  9999,2 51976  53.2184 199.3212 0002296  52.8004 334.5385 15.08820278  1304,6917.941,95.439,541.394,538.217,0.0
51976.0,STARLINK-3663,PAYLOAD,2022-07-30 06:00:00,15.08843351,0.0002494,53.2186,197.8267,49.77,349.1571,-0.00097238,-0.00015733,0.0,0 STARLINK-3663,1 51976U 22025W   22211.25001157 -.00015733  00000-0 -97238-3 0  9991,2 51976  53.2186 197.8267 0002494  49.7700 349.1571 15.08843351 23127,6917.87,95.437,541.46,538.01,0.0
51976.0,STARLINK-3663,PAYLOAD,2022-07-30 14:00:01,15.08856871,0.0002463999999999,53.2187,196.3299,49.1946,1.3197,-0.0020442,-0.00032691,0.0,0 STARLINK-3663,1 51976U 22025W   22211.58334491 -.00032691  00000-0 -20442-2 0  9991,2 51976  53.2187 196.3299 0002464  49.1946   1.3197 15.08856871  1308,6917.829000000002,95.436,541.398,537.989,0.0
51976.0,STARLINK-3663,PAYLOAD,2022-07-30 22:00:00,15.08830557,0.0002371,53.2191,194.8324,54.5684,7.5493,0.0019889,0.000315,0.0,0 STARLINK-3663,1 51976U 22025W   22211.91667824  .00031500  00000-0  19889-2 0  9996,2 51976  53.2191 194.8324 0002371  54.5684   7.5493 15.08830557 23226,6917.909000000002,95.438,541.414,538.134,0.0
51976.0,STARLINK-3663,PAYLOAD,2022-07-31 14:00:01,15.08862767,0.0002496,53.2192,191.841,51.4108,33.9001,-0.0021366999999999,-0.00034156,0.0,0 STARLINK-3663,1 51976U 22025W   22212.58334491 -.00034156  00000-0 -21367-2 0  9997,2 51976  53.2192 191.8410 0002496  51.4108  33.9001 15.08862767  1306,6917.811,95.436,541.4019999999998,537.9490000000002,0.0
51976.0,STARLINK-3663,PAYLOAD,2022-07-31 22:00:00,15.0884086,0.0002407,53.2196,190.3437,56.64100000000001,40.2787,0.0015630999999999,0.00024677,0.0,0 STARLINK-3663,1 51976U 22025W   22212.91667824  .00024677  00000-0  15631-2 0  9995,2 51976  53.2196 190.3437 0002407  56.6410  40.2787 15.08840860  1300,6917.878000000002,95.438,541.408,538.078,0.0
51976.0,STARLINK-3663,PAYLOAD,2022-08-01 06:00:00,15.08851007,0.0002569,53.2195,188.8492,53.0864,55.4422,-0.00040936,-6.8e-05,0.0,0 STARLINK-3663,1 51976U 22025W   22213.25001157 -.00006800  00000-0 -40936-3 0  9991,2 51976  53.2195 188.8492 0002569  53.0864  55.4422 15.08851007 23432,6917.847,95.437,541.489,537.935,0.0
51976.0,STARLINK-3663,PAYLOAD,2022-08-01 14:00:01,15.08868658,0.00025,53.2193,187.3522,53.8696,66.26100000000001,-0.0021187,-0.00033878,0.0,0 STARLINK-3663,1 51976U 22025W   22213.58334491 -.00033878  00000-0 -21187-2 0  9998,2 51976  53.2193 187.3522 0002500  53.8696  66.2610 15.08868658  1305,6917.793000000002,95.436,541.387,537.928,0.0
51976.0,STARLINK-3663,PAYLOAD,2022-08-01 22:00:00,15.08853172,0.0002419,53.2196,185.855,58.7373,73.0065,0.00073264,0.00011395,0.0,0 STARLINK-3663,1 51976U 22025W   22213.91667824  .00011395  00000-0  73264-3 0  9996,2 51976  53.2196 185.8550 0002419  58.7373  73.0065 15.08853172  1302,6917.84,95.437,541.379,538.0319999999998,0.0
51976.0,STARLINK-3663,PAYLOAD,2022-08-02 06:00:02,15.08850029,0.0002522,53.2194,184.3606,54.0446,89.3841,-0.0021138999999999,-0.00033785,0.0,0 STARLINK-3663,1 51976U 22025W   22214.25002315 -.00033785  00000-0 -21139-2 0  9994,2 51976  53.2194 184.3606 0002522  54.0446  89.3841 15.08850029 23585,6917.85,95.437,541.4590000000002,537.97,0.0
51976.0,STARLINK-3663,PAYLOAD,2022-08-02 14:00:01,15.08845618,0.0002417,53.219,182.8635,54.8447,100.1089,-0.0021021,-0.00033594,0.0,0 STARLINK-3663,1 51976U 22025W   22214.58334491 -.00033594  00000-0 -21021-2 0  9991,2 51976  53.2190 182.8635 0002417  54.8447 100.1089 15.08845618  1308,6917.863,95.437,541.4,538.056,0.0
51976.0,STARLINK-3663,PAYLOAD,2022-08-03 06:00:00,15.08826948,0.0002545,53.219,179.8722,55.2577,122.8773,0.0007147999999999,0.00011102,0.0,0 STARLINK-3663,1 51976U 22025W   22215.25001157  .00011102  00000-0  71480-3 0  9990,2 51976  53.2190 179.8722 0002545  55.2577 122.8773 15.08826948 23739,6917.92,95.438,541.5459999999998,538.025,0.0
51976.0,STARLINK-3663,PAYLOAD,2022-08-03 14:00:01,15.08852113,0.0002463,53.2187,178.3748,56.9494,132.7672,-0.0019558,-0.00031292,0.0,0 STARLINK-3663,1 51976U 22025W   22215.58334491 -.00031292  00000-0 -19558-2 0  9997,2 51976  53.2187 178.3748 0002463  56.9494 132.7672 15.08852113  1302,6917.843000000003,95.437,541.4119999999998,538.004,0.0
51976.0,STARLINK-3663,PAYLOAD,2022-08-03 22:00:01,15.08845185,0.0002472,53.2188,176.878,61.5249,139.8486,0.00043078,6.575e-05,0.0,0 STARLINK-3663,1 51976U 22025W   22215.91668981  .00006575  00000-0  43078-3 0  9997,2 51976  53.2188 176.8780 0002472  61.5249 139.8486 15.08845185  1304,6917.865,95.437,541.44,538.019,0.0
51976.0,STARLINK-3663,PAYLOAD,2022-08-04 14:00:01,15.08861515,0.0002522,53.2185,173.8859,58.3519,166.1588,-0.001743,-0.00027939,0.0,0 STARLINK-3663,1 51976U 22025W   22216.58334491 -.00027939  00000-0 -17430-2 0  9998,2 51976  53.2185 173.8859 0002522  58.3519 166.1588 15.08861515  1306,6917.815,95.436,541.424,537.935,0.0
51976.0,STARLINK-3663,PAYLOAD,2022-08-04 22:00:00,15.08862664,0.0002503,53.2186,172.3892,61.7862,174.3284,-0.0025954,-0.00041385,0.0,0 STARLINK-3663,1 51976U 22025W   22216.91667824 -.00041385  00000-0 -25954-2 0  9995,2 51976  53.2186 172.3892 0002503  61.7862 174.3284 15.08862664  1306,6917.811,95.436,541.408,537.945,0.0
